$$SOE
2459580.500000000, A.D. 2022-Jan-01 00:00:00.0000, 4.477180059091303E+08, -2.540652651326716E+08, 1.656803087237135E+06,
2459587.500000000, A.D. 2022-Jan-08 00:00:00.0000, 4.525629997521342E+08, -2.459437284572245E+08, -1.529929163937271E+05,
2459594.500000000, A.D. 2022-Jan-15 00:00:00.0000, 4.572479082767438E+08, -2.377348634420972E+08, -1.962777394689113E+06,
2459601.500000000, A.D. 2022-Jan-22 00:00:00.0000, 4.617713554947088E+08, -2.294417311151066E+08, -3.771904740887269E+06,
2459608.500000000, A.D. 2022-Jan-29 00:00:00.0000, 4.661320252516945E+08, -2.210674087716313E+08, -5.579731308789626E+06,
2459615.500000000, A.D. 2022-Feb-05 00:00:00.0000, 4.703286590167775E+08, -2.126149895599020E+08, -7.385615457275391E+06,
2459622.500000000, A.D. 2022-Feb-12 00:00:00.0000, 4.743600558253837E+08, -2.040875831406442E+08, -9.188917879318297E+06,
2459629.500000000, A.D. 2022-Feb-19 00:00:00.0000, 4.782250730516295E+08, -1.954883150515318E+08, -1.098900190058991E+07,
2459636.500000000, A.D. 2022-Feb-26 00:00:00.0000, 4.819226266999027E+08, -1.868203254995355E+08, -1.278523368666159E+07,
2459643.500000000, A.D. 2022-Mar-05 00:00:00.0000, 4.854516913759809E+08, -1.780867681982597E+08, -1.457698242409732E+07,
2459650.500000000, A.D. 2022-Mar-12 00:00:00.0000, 4.888113001604376E+08, -1.692908093160902E+08, -1.636362050143352E+07,
2459657.500000000, A.D. 2022-Mar-19 00:00:00.0000, 4.920005444563678E+08, -1.604356265071750E+08, -1.814452369452745E+07,
2459664.500000000, A.D. 2022-Mar-26 00:00:00.0000, 4.950185738348374E+08, -1.515244080313031E+08, -1.991907135901815E+07,
2459671.500000000, A.D. 2022-Apr-02 00:00:00.0000, 4.978645959466961E+08, -1.425603520187481E+08, -2.168664664083260E+07,
2459678.500000000, A.D. 2022-Apr-09 00:00:00.0000, 5.005378767732022E+08, -1.335466658753494E+08, -2.344663672936399E+07,
2459685.500000000, A.D. 2022-Apr-16 00:00:00.0000, 5.030377415729395E+08, -1.244865651733098E+08, -2.519843313256102E+07,
2459692.500000000, A.D. 2022-Apr-23 00:00:00.0000, 5.053635752577397E+08, -1.153832709429857E+08, -2.694143176872347E+07,
2459699.500000000, A.D. 2022-Apr-30 00:00:00.0000, 5.075148203297191E+08, -1.062400076118181E+08, -2.867503288675360E+07,
2459706.500000000, A.D. 2022-May-07 00:00:00.0000, 5.094909754426271E+08, -9.706000356512222E+07, -3.039864125689477E+07,
2459713.500000000, A.D. 2022-May-14 00:00:00.0000, 5.112915959767408E+08, -8.784649129062241E+07, -3.211166651080859E+07,
2459720.500000000, A.D. 2022-May-21 00:00:00.0000, 5.129162945970622E+08, -7.860270634817365E+07, -3.381352338230711E+07,
2459727.500000000, A.D. 2022-May-28 00:00:00.0000, 5.143647413169668E+08, -6.933188612416899E+07, -3.550363188280067E+07,
2459734.500000000, A.D. 2022-Jun-04 00:00:00.0000, 5.156366633448149E+08, -6.003726868435729E+07, -3.718141746205752E+07,
2459741.500000000, A.D. 2022-Jun-11 00:00:00.0000, 5.167318448580139E+08, -5.072209172363549E+07, -3.884631116693239E+07,
2459748.500000000, A.D. 2022-Jun-18 00:00:00.0000, 5.176501267426388E+08, -4.138959159987421E+07, -4.049774980003790E+07,
2459755.500000000, A.D. 2022-Jun-25 00:00:00.0000, 5.183914063274822E+08, -3.204300248478824E+07, -4.213517608325388E+07,
2459762.500000000, A.D. 2022-Jul-02 00:00:00.0000, 5.189556372463824E+08, -2.268555569716980E+07, -4.375803884326589E+07,
2459769.500000000, A.D. 2022-Jul-09 00:00:00.0000, 5.193428298190926E+08, -1.332047904110188E+07, -4.536579324004383E+07,
2459776.500000000, A.D. 2022-Jul-16 00:00:00.0000, 5.195530518957162E+08, -3.950995065682961E+06, -4.695790094429760E+07,
2459783.500000000, A.D. 2022-Jul-23 00:00:00.0000, 5.195864279679946E+08, 5.419681831961501E+06, -4.853383005563260E+07,
2459790.500000000, A.D. 2022-Jul-30 00:00:00.0000, 5.194431366335776E+08, 1.478834610536818E+07, -5.009305504315726E+07,
2459797.500000000, A.D. 2022-Aug-06 00:00:00.0000, 5.191234100116320E+08, 2.415180020585835E+07, -5.163505698552793E+07,
2459804.500000000, A.D. 2022-Aug-13 00:00:00.0000, 5.186275342854263E+08, 3.350685493239913E+07, -5.315932380952235E+07,
2459811.500000000, A.D. 2022-Aug-20 00:00:00.0000, 5.179558498022426E+08, 4.285033048102485E+07, -5.466535042411388E+07,
2459818.500000000, A.D. 2022-Aug-27 00:00:00.0000, 5.171087507987052E+08, 5.217905746734915E+07, -5.615263881556371E+07,
2459825.500000000, A.D. 2022-Sep-03 00:00:00.0000, 5.160866849993518E+08, 6.148987781172457E+07, -5.762069813528551E+07,
2459832.500000000, A.D. 2022-Sep-10 00:00:00.0000, 5.148901531784281E+08, 7.077964551110743E+07, -5.906904478685370E+07,
2459839.500000000, A.D. 2022-Sep-17 00:00:00.0000, 5.135197087142534E+08, 8.004522729606073E+07, -6.049720251515730E+07,
2459846.500000000, A.D. 2022-Sep-24 00:00:00.0000, 5.119759571965849E+08, 8.928350312215166E+07, -6.190470250766024E+07,
2459853.500000000, A.D. 2022-Oct-01 00:00:00.0000, 5.102595563268579E+08, 9.849136647340176E+07, -6.329108353195191E+07,
2459860.500000000, A.D. 2022-Oct-08 00:00:00.0000, 5.083712165177978E+08, 1.076657249997428E+08, -6.465589210458748E+07,
2459867.500000000, A.D. 2022-Oct-15 00:00:00.0000, 5.063117012593182E+08, 1.168035026884491E+08, -6.599868250794980E+07,
2459874.500000000, A.D. 2022-Oct-22 00:00:00.0000, 5.040818250697072E+08, 1.259016418873257E+08, -6.731901659313217E+07,
2459881.500000000, A.D. 2022-Oct-29 00:00:00.0000, 5.016824515314975E+08, 1.349571025865684E+08, -6.861646381073374E+07,
2459888.500000000, A.D. 2022-Nov-05 00:00:00.0000, 4.991144935111215E+08, 1.439668617003331E+08, -6.989060143868695E+07,
2459895.500000000, A.D. 2022-Nov-12 00:00:00.0000, 4.963789135972112E+08, 1.529279136159956E+08, -7.114101472376978E+07,
2459902.500000000, A.D. 2022-Nov-19 00:00:00.0000, 4.934767240387558E+08, 1.618372710578080E+08, -7.236729694932154E+07,
2459909.500000000, A.D. 2022-Nov-26 00:00:00.0000, 4.904089864460593E+08, 1.706919658681381E+08, -7.356904948619482E+07,
2459916.500000000, A.D. 2022-Dec-03 00:00:00.0000, 4.871768114210988E+08, 1.794890496951396E+08, -7.474588184352827E+07,
2459923.500000000, A.D. 2022-Dec-10 00:00:00.0000, 4.837813581632352E+08, 1.882255946059136E+08, -7.589741172230208E+07,
2459930.500000000, A.D. 2022-Dec-17 00:00:00.0000, 4.802238340753889E+08, 1.968986936006026E+08, -7.702326507623142E+07,
2459937.500000000, A.D. 2022-Dec-24 00:00:00.0000, 4.765054944805565E+08, 2.055054609620582E+08, -7.812307619563985E+07,
2459944.500000000, A.D. 2022-Dec-31 00:00:00.0000, 4.726276428068262E+08, 2.140430325488299E+08, -7.919648783854575E+07,
2459951.500000000, A.D. 2023-Jan-07 00:00:00.0000, 4.685916313634402E+08, 2.225085669937174E+08, -8.024315134159543E+07,
2459958.500000000, A.D. 2023-Jan-14 00:00:00.0000, 4.643988607400857E+08, 2.308992483053565E+08, -8.126272648962449E+07,
2459965.500000000, A.D. 2023-Jan-21 00:00:00.0000, 4.600507771857733E+08, 2.392122867018912E+08, -8.225488134424643E+07,
2459972.500000000, A.D. 2023-Jan-28 00:00:00.0000, 4.555488716370884E+08, 2.474449174812831E+08, -8.321929238436748E+07,
2459979.500000000, A.D. 2023-Feb-04 00:00:00.0000, 4.508946801870632E+08, 2.555944009551733E+08, -8.415564469200112E+07,
2459986.500000000, A.D. 2023-Feb-11 00:00:00.0000, 4.460897841988259E+08, 2.636580232525394E+08, -8.506363203427139E+07,
2459993.500000000, A.D. 2023-Feb-18 00:00:00.0000, 4.411358100003870E+08, 2.716330971700281E+08, -8.594295690280345E+07,
2460000.500000000, A.D. 2023-Feb-25 00:00:00.0000, 4.360344284227855E+08, 2.795169629074294E+08, -8.679333054746512E+07,
2460007.500000000, A.D. 2023-Mar-04 00:00:00.0000, 4.307873542832209E+08, 2.873069887078910E+08, -8.761447301194340E+07,
2460014.500000000, A.D. 2023-Mar-11 00:00:00.0000, 4.253963458416877E+08, 2.950005714047152E+08, -8.840611317353651E+07,
2460021.500000000, A.D. 2023-Mar-18 00:00:00.0000, 4.198632042787881E+08, 3.025951368268071E+08, -8.916798879554035E+07,
2460028.500000000, A.D. 2023-Mar-25 00:00:00.0000, 4.141897733992513E+08, 3.100881400168535E+08, -8.989984661491331E+07,
2460035.500000000, A.D. 2023-Apr-01 00:00:00.0000, 4.083779399870477E+08, 3.174770656561222E+08, -9.060144247219056E+07,
2460042.500000000, A.D. 2023-Apr-08 00:00:00.0000, 4.024296341969899E+08, 3.247594299202679E+08, -9.127254132688671E+07,
2460049.500000000, A.D. 2023-Apr-15 00:00:00.0000, 3.963468276448531E+08, 3.319327826601350E+08, -9.191291703390351E+07,
2460056.500000000, A.D. 2023-Apr-22 00:00:00.0000, 3.901315310058037E+08, 3.389947068571067E+08, -9.252235229644498E+07,
2460063.500000000, A.D. 2023-Apr-29 00:00:00.0000, 3.837857938572087E+08, 3.459428176058365E+08, -9.310063886247250E+07,
2460070.500000000, A.D. 2023-May-06 00:00:00.0000, 3.773117050049416E+08, 3.527747624048781E+08, -9.364757765746370E+07,
2460077.500000000, A.D. 2023-May-13 00:00:00.0000, 3.707113923156734E+08, 3.594882218618739E+08, -9.416297883679244E+07,
2460084.500000000, A.D. 2023-May-20 00:00:00.0000, 3.639870222890146E+08, 3.660809103226614E+08, -9.464666181946859E+07,
2460091.500000000, A.D. 2023-May-27 00:00:00.0000, 3.571407995628291E+08, 3.725505763952218E+08, -9.509845532361090E+07,
2460098.500000000, A.D. 2023-Jun-03 00:00:00.0000, 3.501749664091135E+08, 3.788950033947582E+08, -9.551819740706439E+07,
2460105.500000000, A.D. 2023-Jun-10 00:00:00.0000, 3.430918022440006E+08, 3.851120096964263E+08, -9.590573551673044E+07,
2460112.500000000, A.D. 2023-Jun-17 00:00:00.0000, 3.358936232407169E+08, 3.911994489359910E+08, -9.626092655996813E+07,
2460119.500000000, A.D. 2023-Jun-24 00:00:00.0000, 3.285827823654594E+08, 3.971552101144966E+08, -9.658363702321726E+07,
2460126.500000000, A.D. 2023-Jul-01 00:00:00.0000, 3.211616700895689E+08, 4.029772184351697E+08, -9.687374309373051E+07,
2460133.500000000, A.D. 2023-Jul-08 00:00:00.0000, 3.136327141034981E+08, 4.086634376937476E+08, -9.713113056357999E+07,
2460140.500000000, A.D. 2023-Jul-15 00:00:00.0000, 3.059983767543025E+08, 4.142118713926089E+08, -9.735569462976404E+07,
2460147.500000000, A.D. 2023-Jul-22 00:00:00.0000, 2.982611537282757E+08, 4.196205615460314E+08, -9.754733999845164E+07,
$$EOE